CCSDS_OMM_VERS = 2.0
CREATION_DATE  = 
ORIGINATOR     = 

OBJECT_NAME    = UNKNOWN
OBJECT_ID      = 
CENTER_NAME    = EARTH
REF_FRAME      = TEME
TIME_SYSTEM    = UTC
MEAN_ELEMENT_THEORY = SGP/SGP4

EPOCH          = 2025-11-26T03:23:59.894880
MEAN_MOTION    = 13.86168796
ECCENTRICITY   = .03659601
INCLINATION    = 97.5667
RA_OF_ASC_NODE = 294.6258
ARG_OF_PERICENTER = 296.6436
MEAN_ANOMALY   = 59.7679

EPHEMERIS_TYPE = 0
CLASSIFICATION_TYPE = U
NORAD_CAT_ID   = 270197
ELEMENT_SET_NO = 999
REV_AT_EPOCH   = 30111
BSTAR          = .2401618E-2
MEAN_MOTION_DOT = .4659E-4
MEAN_MOTION_DDOT = 0

CCSDS_OMM_VERS = 2.0
CREATION_DATE  = 
ORIGINATOR     = 

OBJECT_NAME    = UNKNOWN
OBJECT_ID      = 
CENTER_NAME    = EARTH
REF_FRAME      = TEME
TIME_SYSTEM    = UTC
MEAN_ELEMENT_THEORY = SGP/SGP4

EPOCH          = 2025-11-25T13:58:50.452032
MEAN_MOTION    = 13.11984803
ECCENTRICITY   = .06037425
INCLINATION    = 72.7168
RA_OF_ASC_NODE = 80.5234
ARG_OF_PERICENTER = 8.4855
MEAN_ANOMALY   = 352.5893

EPHEMERIS_TYPE = 0
CLASSIFICATION_TYPE = U
NORAD_CAT_ID   = 270199
ELEMENT_SET_NO = 999
REV_AT_EPOCH   = 28486
BSTAR          = .21641094E-2
MEAN_MOTION_DOT = .1908E-4
MEAN_MOTION_DDOT = 0

CCSDS_OMM_VERS = 2.0
CREATION_DATE  = 
ORIGINATOR     = 

OBJECT_NAME    = UNKNOWN
OBJECT_ID      = 
CENTER_NAME    = EARTH
REF_FRAME      = TEME
TIME_SYSTEM    = UTC
MEAN_ELEMENT_THEORY = SGP/SGP4

EPOCH          = 2025-11-26T08:40:49.914048
MEAN_MOTION    = 12.95702841
ECCENTRICITY   = .00306873
INCLINATION    = 90.2478
RA_OF_ASC_NODE = 9.3229
ARG_OF_PERICENTER = 346.3032
MEAN_ANOMALY   = 13.7252

EPHEMERIS_TYPE = 0
CLASSIFICATION_TYPE = U
NORAD_CAT_ID   = 270200
ELEMENT_SET_NO = 999
REV_AT_EPOCH   = 28189
BSTAR          = .49047822E-3
MEAN_MOTION_DOT = .146E-5
MEAN_MOTION_DDOT = 0

CCSDS_OMM_VERS = 2.0
CREATION_DATE  = 
ORIGINATOR     = 

OBJECT_NAME    = UNKNOWN
OBJECT_ID      = 
CENTER_NAME    = EARTH
REF_FRAME      = TEME
TIME_SYSTEM    = UTC
MEAN_ELEMENT_THEORY = SGP/SGP4

EPOCH          = 2025-11-25T14:33:02.611008
MEAN_MOTION    = 14.02275473
ECCENTRICITY   = .00218416
INCLINATION    = 82.5302
RA_OF_ASC_NODE = 85.1535
ARG_OF_PERICENTER = 331.7750
MEAN_ANOMALY   = 28.2235

EPHEMERIS_TYPE = 0
CLASSIFICATION_TYPE = U
NORAD_CAT_ID   = 270202
ELEMENT_SET_NO = 999
REV_AT_EPOCH   = 30524
BSTAR          = .17968751E-2
MEAN_MOTION_DOT = .2773E-4
MEAN_MOTION_DDOT = 0

CCSDS_OMM_VERS = 2.0
CREATION_DATE  = 
ORIGINATOR     = 

OBJECT_NAME    = UNKNOWN
OBJECT_ID      = 
CENTER_NAME    = EARTH
REF_FRAME      = TEME
TIME_SYSTEM    = UTC
MEAN_ELEMENT_THEORY = SGP/SGP4

EPOCH          = 2025-11-12T21:02:46.644000
MEAN_MOTION    = 13.00571674
ECCENTRICITY   = .00384548
INCLINATION    = 90.2479
RA_OF_ASC_NODE = 7.5710
ARG_OF_PERICENTER = 118.8036
MEAN_ANOMALY   = 241.6957

EPHEMERIS_TYPE = 0
CLASSIFICATION_TYPE = U
NORAD_CAT_ID   = 270203
ELEMENT_SET_NO = 999
REV_AT_EPOCH   = 28238
BSTAR          = -.36261577E-2
MEAN_MOTION_DOT = -.1095E-4
MEAN_MOTION_DDOT = 0

CCSDS_OMM_VERS = 2.0
CREATION_DATE  = 
ORIGINATOR     = 

OBJECT_NAME    = UNKNOWN
OBJECT_ID      = 
CENTER_NAME    = EARTH
REF_FRAME      = TEME
TIME_SYSTEM    = UTC
MEAN_ELEMENT_THEORY = SGP/SGP4

EPOCH          = 2025-11-25T07:40:54.972480
MEAN_MOTION    = 13.86702681
ECCENTRICITY   = .00614858
INCLINATION    = 89.9302
RA_OF_ASC_NODE = 346.6917
ARG_OF_PERICENTER = 257.1273
MEAN_ANOMALY   = 102.3025

EPHEMERIS_TYPE = 0
CLASSIFICATION_TYPE = U
NORAD_CAT_ID   = 270204
ELEMENT_SET_NO = 999
REV_AT_EPOCH   = 30140
BSTAR          = .28874975E-2
MEAN_MOTION_DOT = .3421E-4
MEAN_MOTION_DDOT = 0

CCSDS_OMM_VERS = 2.0
CREATION_DATE  = 
ORIGINATOR     = 

OBJECT_NAME    = UNKNOWN
OBJECT_ID      = 
CENTER_NAME    = EARTH
REF_FRAME      = TEME
TIME_SYSTEM    = UTC
MEAN_ELEMENT_THEORY = SGP/SGP4

EPOCH          = 2025-11-25T20:31:54.705792
MEAN_MOTION    = 14.31912479
ECCENTRICITY   = .00523246
INCLINATION    = 98.5264
RA_OF_ASC_NODE = 11.0061
ARG_OF_PERICENTER = 158.2519
MEAN_ANOMALY   = 202.0902

EPHEMERIS_TYPE = 0
CLASSIFICATION_TYPE = U
NORAD_CAT_ID   = 270207
ELEMENT_SET_NO = 999
REV_AT_EPOCH   = 31100
BSTAR          = .90436036E-3
MEAN_MOTION_DOT = .2417E-4
MEAN_MOTION_DDOT = 0

CCSDS_OMM_VERS = 2.0
CREATION_DATE  = 
ORIGINATOR     = 

OBJECT_NAME    = UNKNOWN
OBJECT_ID      = 
CENTER_NAME    = EARTH
REF_FRAME      = TEME
TIME_SYSTEM    = UTC
MEAN_ELEMENT_THEORY = SGP/SGP4

EPOCH          = 2025-11-26T13:37:24.956544
MEAN_MOTION    = 14.37102452
ECCENTRICITY   = .00019547
INCLINATION    = 86.3954
RA_OF_ASC_NODE = 76.8278
ARG_OF_PERICENTER = 101.5185
MEAN_ANOMALY   = 258.6232

EPHEMERIS_TYPE = 0
CLASSIFICATION_TYPE = U
NORAD_CAT_ID   = 270209
ELEMENT_SET_NO = 999
REV_AT_EPOCH   = 31144
BSTAR          = .28377391E-3
MEAN_MOTION_DOT = .862E-5
MEAN_MOTION_DDOT = 0

CCSDS_OMM_VERS = 2.0
CREATION_DATE  = 
ORIGINATOR     = 

OBJECT_NAME    = UNKNOWN
OBJECT_ID      = 
CENTER_NAME    = EARTH
REF_FRAME      = TEME
TIME_SYSTEM    = UTC
MEAN_ELEMENT_THEORY = SGP/SGP4

EPOCH          = 2025-11-26T11:30:52.337088
MEAN_MOTION    = 14.37161199
ECCENTRICITY   = .00022185
INCLINATION    = 86.3978
RA_OF_ASC_NODE = 45.1706
ARG_OF_PERICENTER = 117.5097
MEAN_ANOMALY   = 242.6326

EPHEMERIS_TYPE = 0
CLASSIFICATION_TYPE = U
NORAD_CAT_ID   = 270210
ELEMENT_SET_NO = 999
REV_AT_EPOCH   = 31146
BSTAR          = .24430936E-3
MEAN_MOTION_DOT = .746E-5
MEAN_MOTION_DDOT = 0

CCSDS_OMM_VERS = 2.0
CREATION_DATE  = 
ORIGINATOR     = 

OBJECT_NAME    = UNKNOWN
OBJECT_ID      = 
CENTER_NAME    = EARTH
REF_FRAME      = TEME
TIME_SYSTEM    = UTC
MEAN_ELEMENT_THEORY = SGP/SGP4

EPOCH          = 2025-11-09T07:48:31.915296
MEAN_MOTION    = 12.88814883
ECCENTRICITY   = .02151447
INCLINATION    = 82.4854
RA_OF_ASC_NODE = 314.4228
ARG_OF_PERICENTER = 81.4193
MEAN_ANOMALY   = 281.1225

EPHEMERIS_TYPE = 0
CLASSIFICATION_TYPE = U
NORAD_CAT_ID   = 270211
ELEMENT_SET_NO = 999
REV_AT_EPOCH   = 27945
BSTAR          = .15596195E-3
MEAN_MOTION_DOT = .58E-6
MEAN_MOTION_DDOT = 0

CCSDS_OMM_VERS = 2.0
CREATION_DATE  = 
ORIGINATOR     = 

OBJECT_NAME    = UNKNOWN
OBJECT_ID      = 
CENTER_NAME    = EARTH
REF_FRAME      = TEME
TIME_SYSTEM    = UTC
MEAN_ELEMENT_THEORY = SGP/SGP4

EPOCH          = 2025-11-26T14:55:34.309632
MEAN_MOTION    = 11.82012854
ECCENTRICITY   = .10222088
INCLINATION    = 83.2414
RA_OF_ASC_NODE = 288.3836
ARG_OF_PERICENTER = 137.5093
MEAN_ANOMALY   = 230.9855

EPHEMERIS_TYPE = 0
CLASSIFICATION_TYPE = U
NORAD_CAT_ID   = 270212
ELEMENT_SET_NO = 999
REV_AT_EPOCH   = 25742
BSTAR          = .41016278E-2
MEAN_MOTION_DOT = .1134E-4
MEAN_MOTION_DDOT = 0

CCSDS_OMM_VERS = 2.0
CREATION_DATE  = 
ORIGINATOR     = 

OBJECT_NAME    = UNKNOWN
OBJECT_ID      = 
CENTER_NAME    = EARTH
REF_FRAME      = TEME
TIME_SYSTEM    = UTC
MEAN_ELEMENT_THEORY = SGP/SGP4

EPOCH          = 2025-11-24T20:17:19.624128
MEAN_MOTION    = 14.40288354
ECCENTRICITY   = .01607812
INCLINATION    = 97.0612
RA_OF_ASC_NODE = 3.2242
ARG_OF_PERICENTER = 283.0569
MEAN_ANOMALY   = 75.2719

EPHEMERIS_TYPE = 0
CLASSIFICATION_TYPE = U
NORAD_CAT_ID   = 270213
ELEMENT_SET_NO = 999
REV_AT_EPOCH   = 8157
BSTAR          = .22457543E-2
MEAN_MOTION_DOT = .8258E-4
MEAN_MOTION_DDOT = 0

CCSDS_OMM_VERS = 2.0
CREATION_DATE  = 
ORIGINATOR     = 

OBJECT_NAME    = UNKNOWN
OBJECT_ID      = 
CENTER_NAME    = EARTH
REF_FRAME      = TEME
TIME_SYSTEM    = UTC
MEAN_ELEMENT_THEORY = SGP/SGP4

EPOCH          = 2025-11-25T02:32:48.748128
MEAN_MOTION    = 13.98837893
ECCENTRICITY   = .0018692
INCLINATION    = 82.5479
RA_OF_ASC_NODE = 92.8546
ARG_OF_PERICENTER = 200.3706
MEAN_ANOMALY   = 159.6719

EPHEMERIS_TYPE = 0
CLASSIFICATION_TYPE = U
NORAD_CAT_ID   = 270215
ELEMENT_SET_NO = 999
REV_AT_EPOCH   = 30476
BSTAR          = .14664633E-2
MEAN_MOTION_DOT = .213E-4
MEAN_MOTION_DDOT = 0

CCSDS_OMM_VERS = 2.0
CREATION_DATE  = 
ORIGINATOR     = 

OBJECT_NAME    = UNKNOWN
OBJECT_ID      = 
CENTER_NAME    = EARTH
REF_FRAME      = TEME
TIME_SYSTEM    = UTC
MEAN_ELEMENT_THEORY = SGP/SGP4

EPOCH          = 2025-11-08T20:49:41.013984
MEAN_MOTION    = 13.05918677
ECCENTRICITY   = .00291249
INCLINATION    = 90.3151
RA_OF_ASC_NODE = 10.5864
ARG_OF_PERICENTER = 346.7660
MEAN_ANOMALY   = 13.2699

EPHEMERIS_TYPE = 0
CLASSIFICATION_TYPE = U
NORAD_CAT_ID   = 270216
ELEMENT_SET_NO = 999
REV_AT_EPOCH   = 27981
BSTAR          = .23187189E-2
MEAN_MOTION_DOT = .768E-5
MEAN_MOTION_DDOT = 0

CCSDS_OMM_VERS = 2.0
CREATION_DATE  = 
ORIGINATOR     = 

OBJECT_NAME    = UNKNOWN
OBJECT_ID      = 
CENTER_NAME    = EARTH
REF_FRAME      = TEME
TIME_SYSTEM    = UTC
MEAN_ELEMENT_THEORY = SGP/SGP4

EPOCH          = 2025-11-24T17:03:26.741952
MEAN_MOTION    = 13.58032685
ECCENTRICITY   = .05099359
INCLINATION    = 98.8555
RA_OF_ASC_NODE = 128.1295
ARG_OF_PERICENTER = 266.3290
MEAN_ANOMALY   = 87.9426

EPHEMERIS_TYPE = 0
CLASSIFICATION_TYPE = U
NORAD_CAT_ID   = 270218
ELEMENT_SET_NO = 999
REV_AT_EPOCH   = 28798
BSTAR          = .12286311E-1
MEAN_MOTION_DOT = .20906E-3
MEAN_MOTION_DDOT = 0

CCSDS_OMM_VERS = 2.0
CREATION_DATE  = 
ORIGINATOR     = 

OBJECT_NAME    = UNKNOWN
OBJECT_ID      = 
CENTER_NAME    = EARTH
REF_FRAME      = TEME
TIME_SYSTEM    = UTC
MEAN_ELEMENT_THEORY = SGP/SGP4

EPOCH          = 2025-11-19T05:35:42.788832
MEAN_MOTION    = 12.56926909
ECCENTRICITY   = .00290355
INCLINATION    = 101.9253
RA_OF_ASC_NODE = 302.3967
ARG_OF_PERICENTER = 262.7238
MEAN_ANOMALY   = 97.0534

EPHEMERIS_TYPE = 0
CLASSIFICATION_TYPE = U
NORAD_CAT_ID   = 270219
ELEMENT_SET_NO = 999
REV_AT_EPOCH   = 27251
BSTAR          = .20771636E-3
MEAN_MOTION_DOT = -.12E-6
MEAN_MOTION_DDOT = 0

